[Satellite]
VERSION=1.1
NAME=D-SAT
NICKNAME=D-SAT
TLE1=1 42794U 17036AF  22335.63001741  .00001988  00000-0  16933-3 0  9991
TLE2=2 42794  97.4571 332.3472 0119434 244.8847 113.9944 14.93523479296425
STATUS=0
